{
  "type": "FeatureCollection",
  "features": [
    {
      "type": "Feature",
      "properties": {
        "norad_id": 66607,
        "name": "STARLINK-35993",
        "group": "last-30-days",
        "lat": 40.77482785081847,
        "lon": -22.232438918865913,
        "alt_km": 364.72895166727085,
        "timestamp": "2025-12-07T03:52:31.204709+00:00",
        "meta_object_name": "STARLINK-35993",
        "meta_object_id": "2025-270V",
        "meta_epoch": "2025-12-06T14:00:01.999872",
        "meta_mean_motion": 15.68500745,
        "meta_eccentricity": 0.00016208,
        "meta_inclination": 42.999,
        "meta_ra_of_asc_node": 228.9832,
        "meta_arg_of_pericenter": 260.6436,
        "meta_mean_anomaly": 180.1446,
        "meta_ephemeris_type": 0,
        "meta_classification_type": "U",
        "meta_norad_cat_id": 66607,
        "meta_element_set_no": 999,
        "meta_rev_at_epoch": 331,
        "meta_bstar": -0.01839342,
        "meta_mean_motion_dot": -0.01899622,
        "meta_mean_motion_ddot": 0,
        "tle_line1": "1 66607U 25270V   25340.58335648 -.01899622  00000+0 -18393-1 0  9990",
        "tle_line2": "2 66607  42.9990 228.9832 0001620 260.6436 180.1446 15.68500745  3312"
      },
      "geometry": {
        "type": "Point",
        "coordinates": [
          -22.232438918865913,
          40.77482785081847
        ]
      }
    },
    {
      "type": "Feature",
      "properties": {
        "norad_id": 66608,
        "name": "STARLINK-36036",
        "group": "last-30-days",
        "lat": 39.68290411075511,
        "lon": -17.421781854646657,
        "alt_km": 364.8786564981656,
        "timestamp": "2025-12-07T03:52:31.204721+00:00",
        "meta_object_name": "STARLINK-36036",
        "meta_object_id": "2025-270W",
        "meta_epoch": "2025-12-06T14:00:01.999872",
        "meta_mean_motion": 15.68501311,
        "meta_eccentricity": 0.00016622,
        "meta_inclination": 42.9991,
        "meta_ra_of_asc_node": 228.9736,
        "meta_arg_of_pericenter": 260.9372,
        "meta_mean_anomaly": 183.6815,
        "meta_ephemeris_type": 0,
        "meta_classification_type": "U",
        "meta_norad_cat_id": 66608,
        "meta_element_set_no": 999,
        "meta_rev_at_epoch": 325,
        "meta_bstar": -0.018371244,
        "meta_mean_motion_dot": -0.01897662,
        "meta_mean_motion_ddot": 0,
        "tle_line1": "1 66608U 25270W   25340.58335648 -.01897662  00000+0 -18371-1 0  9999",
        "tle_line2": "2 66608  42.9991 228.9736 0001662 260.9372 183.6815 15.68501311  3256"
      },
      "geometry": {
        "type": "Point",
        "coordinates": [
          -17.421781854646657,
          39.68290411075511
        ]
      }
    },
    {
      "type": "Feature",
      "properties": {
        "norad_id": 66609,
        "name": "STARLINK-36034",
        "group": "last-30-days",
        "lat": 39.06389172470219,
        "lon": -15.077477632902292,
        "alt_km": 364.92239665214584,
        "timestamp": "2025-12-07T03:52:31.204731+00:00",
        "meta_object_name": "STARLINK-36034",
        "meta_object_id": "2025-270X",
        "meta_epoch": "2025-12-06T14:00:01.999872",
        "meta_mean_motion": 15.68500567,
        "meta_eccentricity": 0.00015734,
        "meta_inclination": 42.999,
        "meta_ra_of_asc_node": 228.9691,
        "meta_arg_of_pericenter": 261.4725,
        "meta_mean_anomaly": 185.0694,
        "meta_ephemeris_type": 0,
        "meta_classification_type": "U",
        "meta_norad_cat_id": 66609,
        "meta_element_set_no": 999,
        "meta_rev_at_epoch": 325,
        "meta_bstar": -0.018417291,
        "meta_mean_motion_dot": -0.0190176,
        "meta_mean_motion_ddot": 0,
        "tle_line1": "1 66609U 25270X   25340.58335648 -.01901760  00000+0 -18417-1 0  9996",
        "tle_line2": "2 66609  42.9990 228.9691 0001573 261.4725 185.0694 15.68500567  3258"
      },
      "geometry": {
        "type": "Point",
        "coordinates": [
          -15.077477632902292,
          39.06389172470219
        ]
      }
    },
    {
      "type": "Feature",
      "properties": {
        "norad_id": 66610,
        "name": "STARLINK-35680",
        "group": "last-30-days",
        "lat": 38.39819691197927,
        "lon": -12.774645862289038,
        "alt_km": 365.0249445592772,
        "timestamp": "2025-12-07T03:52:31.204741+00:00",
        "meta_object_name": "STARLINK-35680",
        "meta_object_id": "2025-270Y",
        "meta_epoch": "2025-12-06T14:00:01.999872",
        "meta_mean_motion": 15.68505716,
        "meta_eccentricity": 0.00015908,
        "meta_inclination": 42.999,
        "meta_ra_of_asc_node": 228.9638,
        "meta_arg_of_pericenter": 262.3443,
        "meta_mean_anomaly": 186.1087,
        "meta_ephemeris_type": 0,
        "meta_classification_type": "U",
        "meta_norad_cat_id": 66610,
        "meta_element_set_no": 999,
        "meta_rev_at_epoch": 352,
        "meta_bstar": -0.018445558,
        "meta_mean_motion_dot": -0.01904722,
        "meta_mean_motion_ddot": 0,
        "tle_line1": "1 66610U 25270Y   25340.58335648 -.01904722  00000+0 -18446-1 0  9991",
        "tle_line2": "2 66610  42.9990 228.9638 0001590 262.3443 186.1087 15.68505716  3526"
      },
      "geometry": {
        "type": "Point",
        "coordinates": [
          -12.774645862289038,
          38.39819691197927
        ]
      }
    },
    {
      "type": "Feature",
      "properties": {
        "norad_id": 66611,
        "name": "STARLINK-35583",
        "group": "last-30-days",
        "lat": 37.687818885606085,
        "lon": -10.514183004444709,
        "alt_km": 365.0876701643192,
        "timestamp": "2025-12-07T03:52:31.204753+00:00",
        "meta_object_name": "STARLINK-35583",
        "meta_object_id": "2025-270Z",
        "meta_epoch": "2025-12-06T14:00:01.999872",
        "meta_mean_motion": 15.68502741,
        "meta_eccentricity": 0.00015409,
        "meta_inclination": 42.999,
        "meta_ra_of_asc_node": 228.9588,
        "meta_arg_of_pericenter": 262.9865,
        "meta_mean_anomaly": 187.386,
        "meta_ephemeris_type": 0,
        "meta_classification_type": "U",
        "meta_norad_cat_id": 66611,
        "meta_element_set_no": 999,
        "meta_rev_at_epoch": 352,
        "meta_bstar": -0.018412509,
        "meta_mean_motion_dot": -0.01901451,
        "meta_mean_motion_ddot": 0,
        "tle_line1": "1 66611U 25270Z   25340.58335648 -.01901451  00000+0 -18413-1 0  9992",
        "tle_line2": "2 66611  42.9990 228.9588 0001540 262.9865 187.3860 15.68502741  3527"
      },
      "geometry": {
        "type": "Point",
        "coordinates": [
          -10.514183004444709,
          37.687818885606085
        ]
      }
    },
    {
      "type": "Feature",
      "properties": {
        "norad_id": 66612,
        "name": "STARLINK-36039",
        "group": "last-30-days",
        "lat": 36.93625303824465,
        "lon": -8.30207365062499,
        "alt_km": 365.2218524361151,
        "timestamp": "2025-12-07T03:52:31.204766+00:00",
        "meta_object_name": "STARLINK-36039",
        "meta_object_id": "2025-270AA",
        "meta_epoch": "2025-12-06T14:00:01.999872",
        "meta_mean_motion": 15.68504875,
        "meta_eccentricity": 0.00015982,
        "meta_inclination": 42.9989,
        "meta_ra_of_asc_node": 228.9537,
        "meta_arg_of_pericenter": 262.7217,
        "meta_mean_anomaly": 189.5671,
        "meta_ephemeris_type": 0,
        "meta_classification_type": "U",
        "meta_norad_cat_id": 66612,
        "meta_element_set_no": 999,
        "meta_rev_at_epoch": 341,
        "meta_bstar": -0.018450769,
        "meta_mean_motion_dot": -0.01905146,
        "meta_mean_motion_ddot": 0,
        "tle_line1": "1 66612U 25270AA  25340.58335648 -.01905146  00000+0 -18451-1 0  9990",
        "tle_line2": "2 66612  42.9989 228.9537 0001598 262.7217 189.5671 15.68504875  3414"
      },
      "geometry": {
        "type": "Point",
        "coordinates": [
          -8.30207365062499,
          36.93625303824465
        ]
      }
    },
    {
      "type": "Feature",
      "properties": {
        "norad_id": 66613,
        "name": "STARLINK-36037",
        "group": "last-30-days",
        "lat": 36.143268175926984,
        "lon": -6.130861848525461,
        "alt_km": 365.3028667356866,
        "timestamp": "2025-12-07T03:52:31.204776+00:00",
        "meta_object_name": "STARLINK-36037",
        "meta_object_id": "2025-270AB",
        "meta_epoch": "2025-12-06T14:00:01.999872",
        "meta_mean_motion": 15.68501963,
        "meta_eccentricity": 0.00015713,
        "meta_inclination": 42.999,
        "meta_ra_of_asc_node": 228.9489,
        "meta_arg_of_pericenter": 262.7487,
        "meta_mean_anomaly": 191.4598,
        "meta_ephemeris_type": 0,
        "meta_classification_type": "U",
        "meta_norad_cat_id": 66613,
        "meta_element_set_no": 999,
        "meta_rev_at_epoch": 341,
        "meta_bstar": -0.018422181,
        "meta_mean_motion_dot": -0.01902304,
        "meta_mean_motion_ddot": 0,
        "tle_line1": "1 66613U 25270AB  25340.58335648 -.01902304  00000+0 -18422-1 0  9992",
        "tle_line2": "2 66613  42.9990 228.9489 0001571 262.7487 191.4598 15.68501963  3418"
      },
      "geometry": {
        "type": "Point",
        "coordinates": [
          -6.130861848525461,
          36.143268175926984
        ]
      }
    }
  ]
}